*******************************************************************************
 Revised: April 12, 2021                 Earth                              399
 
 GEOPHYSICAL PROPERTIES (revised May 9, 2022):
  Vol. Mean Radius (km)    = 6371.01+-0.02   Mass x10^24 (kg)= 5.97219+-0.0006
  Equ. radius, km          = 6378.137        Mass layers:
  Polar axis, km           = 6356.752          Atmos         = 5.1   x 10^18 kg
  Flattening               = 1/298.257223563   oceans        = 1.4   x 10^21 kg
  Density, g/cm^3          = 5.51              crust         = 2.6   x 10^22 kg
  J2 (IERS 2010)           = 0.00108262545     mantle        = 4.043 x 10^24 kg
  g_p, m/s^2  (polar)      = 9.8321863685      outer core    = 1.835 x 10^24 kg
  g_e, m/s^2  (equatorial) = 9.7803267715      inner core    = 9.675 x 10^22 kg
  g_o, m/s^2               = 9.82022         Fluid core rad  = 3480 km
  GM, km^3/s^2             = 398600.435436   Inner core rad  = 1215 km
  GM 1-sigma, km^3/s^2     =      0.0014     Escape velocity = 11.186 km/s
  Rot. Rate (rad/s)        = 0.00007292115   Surface area:
  Mean sidereal day, hr    = 23.9344695944     land          = 1.48 x 10^8 km
  Mean solar day 2000.0, s = 86400.002         sea           = 3.62 x 10^8 km
  Mean solar day 1820.0, s = 86400.0         Love no., k2    = 0.299
  Moment of inertia        = 0.3308          Atm. pressure   = 1.0 bar
  Mean surface temp (Ts), K= 287.6           Volume, km^3    = 1.08321 x 10^12
  Mean effect. temp (Te), K= 255             Magnetic moment = 0.61 gauss Rp^3
  Geometric albedo         = 0.367           Vis. mag. V(1,0)= -3.86
  Solar Constant (W/m^2)   = 1367.6 (mean), 1414 (perihelion), 1322 (aphelion)
 HELIOCENTRIC ORBIT CHARACTERISTICS:
  Obliquity to orbit, deg  = 23.4392911  Sidereal orb period  = 1.0000174 y
  Orbital speed, km/s      = 29.79       Sidereal orb period  = 365.25636 d
  Mean daily motion, deg/d = 0.9856474   Hill's sphere radius = 234.9       
*******************************************************************************


*******************************************************************************
Ephemeris / WWW_USER Sat May 10 16:00:42 2025 Pasadena, USA      / Horizons
*******************************************************************************
Target body name: Earth (399)                     {source: DE441}
Center body name: Solar System Barycenter (0)     {source: DE441}
Center-site name: BODY CENTER
*******************************************************************************
Start time      : A.D. 2005-May-01 00:00:00.0000 TDB
Stop  time      : A.D. 2025-Jun-09 00:00:00.0000 TDB
Step-size       : 1 calendar months
*******************************************************************************
Center geodetic : 0.0, 0.0, 0.0                   {E-lon(deg),Lat(deg),Alt(km)}
Center cylindric: 0.0, 0.0, 0.0                   {E-lon(deg),Dxy(km),Dz(km)}
Center radii    : (undefined)
Output units    : KM-S
Calendar mode   : Mixed Julian/Gregorian
Output type     : GEOMETRIC cartesian states
Output format   : 3 (position, velocity, LT, range, range-rate)
Reference frame : Ecliptic of J2000.0
*******************************************************************************
JDTDB
   X     Y     Z
   VX    VY    VZ
   LT    RG    RR
*******************************************************************************
$$SOE
2457509.500000000 = A.D. 2016-May-01 00:00:00.0000 TDB 
 X =-1.134930039972772E+08 Y =-9.821763404713166E+07 Z =-2.037697671858966E+04
 VX= 1.898339287476619E+01 VY=-2.264900089533258E+01 VZ= 1.769857599128954E-03
 LT= 5.006503276045927E+02 RG= 1.500911923110861E+08 RR= 4.667093445675106E-01
2457540.500000000 = A.D. 2016-Jun-01 00:00:00.0000 TDB 
 X =-4.954882427394181E+07 Y =-1.428221145763035E+08 Z =-1.864134873238206E+04
 VX= 2.763374393071035E+01 VY=-9.950494442986148E+00 VZ= 1.266411553626501E-03
 LT= 5.042584835466248E+02 RG= 1.511728902497952E+08 RR= 3.435213263418904E-01
2457570.500000000 = A.D. 2016-Jul-01 00:00:00.0000 TDB 
 X = 2.531634184422240E+07 Y =-1.496688750559988E+08 Z =-1.849412350720167E+04
 VX= 2.891443636026106E+01 VY= 4.742996324955132E+00 VZ= 1.437617449826512E-04
 LT= 5.063332627774373E+02 RG= 1.517948934152078E+08 RR= 1.457811104312637E-01
2457601.500000000 = A.D. 2016-Aug-01 00:00:00.0000 TDB 
 X = 9.601009347920129E+07 Y =-1.176494369320781E+08 Z =-1.994868757282197E+04
 VX= 2.269017630534284E+01 VY= 1.863180194320046E+01 VZ=-1.349898343322664E-03
 LT= 5.065270289101368E+02 RG= 1.518529830404070E+08 RR=-8.913247742856170E-02
2457632.500000000 = A.D. 2016-Sep-01 00:00:00.0000 TDB 
 X = 1.412670975011050E+08 Y =-5.422777305038470E+07 Z =-2.269800083158538E+04
 VX= 1.030864926618488E+01 VY= 2.767743351798885E+01 VZ=-2.143356197947810E-03
 LT= 5.047414991155305E+02 RG= 1.513176946744497E+08 RR=-2.948272102998679E-01
2457662.500000000 = A.D. 2016-Oct-01 00:00:00.0000 TDB 
 X = 1.488473965732083E+08 Y = 2.138133698060205E+07 Z =-2.567123083962686E+04
 VX=-4.643951306580071E+00 VY= 2.941066591711478E+01 VZ=-2.012472402485699E-03
 LT= 5.015977742332090E+02 RG= 1.503752296647028E+08 RR=-4.149662911634305E-01
2457693.500000000 = A.D. 2016-Nov-01 00:00:00.0000 TDB 
 X = 1.162963359512413E+08 Y = 9.349742440686409E+07 Z =-2.825993841052055E+04
 VX=-1.915049234605471E+01 VY= 2.313460690522548E+01 VZ=-1.027264344363843E-03
 LT= 4.977443263690040E+02 RG= 1.492199950577179E+08 RR=-4.296066498956480E-01
2457723.500000000 = A.D. 2016-Dec-01 00:00:00.0000 TDB 
 X = 5.340260599639311E+07 Y = 1.382675807197989E+08 Z =-2.942837298759073E+04
 VX=-2.830974753060979E+01 VY= 1.058122173205609E+01 VZ= 1.595439065891213E-04
 LT= 4.944153932960882E+02 RG= 1.482220060292709E+08 RR=-3.290629325907771E-01
2457754.500000000 = A.D. 2017-Jan-01 00:00:00.0000 TDB 
 X =-2.636345628507423E+07 Y = 1.452193274572671E+08 Z =-2.882793482947350E+04
 VX=-2.978625056306863E+01 VY=-5.548408846120549E+00 VZ= 1.465196094178278E-03
 LT= 4.923171654890392E+02 RG= 1.475929731575518E+08 RR=-1.386768507778396E-01
2457785.500000000 = A.D. 2017-Feb-01 00:00:00.0000 TDB 
 X =-9.829601219811842E+07 Y = 1.100283505865391E+08 Z =-2.652916412287205E+04
 VX=-2.259939412558425E+01 VY=-2.007528349980021E+01 VZ= 1.982662547818315E-03
 LT= 4.921437787449218E+02 RG= 1.475409931193482E+08 RR= 8.526401194668060E-02
2457813.500000000 = A.D. 2017-Mar-01 00:00:00.0000 TDB 
 X =-1.391207087789390E+08 Y = 5.047726932108390E+07 Z =-2.374033592858911E+04
 VX=-1.050215493571249E+01 VY=-2.816739409610608E+01 VZ= 2.169018757326668E-03
 LT= 4.936582600855471E+02 RG= 1.479950232030495E+08 RR= 2.652389800514348E-01
2457844.500000000 = A.D. 2017-Apr-01 00:00:00.0000 TDB 
 X =-1.461621322954813E+08 Y =-2.841007223573782E+07 Z =-2.012769201289490E+04
 VX= 5.316861403640003E+00 VY=-2.932546583575898E+01 VZ= 1.277834368590192E-03
 LT= 4.966690021175882E+02 RG= 1.488976209572390E+08 RR= 3.761965892069915E-01
2457874.500000000 = A.D. 2017-May-01 00:00:00.0000 TDB 
 X =-1.140237545858604E+08 Y =-9.734596958577019E+07 Z =-1.719837310181558E+04
 VX= 1.889975788974116E+01 VY=-2.272231318270832E+01 VZ= 2.675280781438971E-04
 LT= 5.000976280904514E+02 RG= 1.499254971652062E+08 RR= 3.795501707524206E-01
2457905.500000000 = A.D. 2017-Jun-01 00:00:00.0000 TDB 
 X =-5.028163004240477E+07 Y =-1.422293183207058E+08 Z =-1.555042718273401E+04
 VX= 2.758897532600646E+01 VY=-1.004910612985838E+01 VZ=-6.416164925839851E-04
 LT= 5.032002222269293E+02 RG= 1.508556314875574E+08 RR= 2.788021471493574E-01
2457935.500000000 = A.D. 2017-Jul-01 00:00:00.0000 TDB 
 X = 2.454054422882333E+07 Y =-1.493991495484260E+08 Z =-1.540409056685865E+04
 VX= 2.891812158020824E+01 VY= 4.636563552997259E+00 VZ=-9.788087435265158E-04
 LT= 5.050202750336902E+02 RG= 1.514012695921860E+08 RR= 1.120717490146199E-01
2457966.500000000 = A.D. 2017-Aug-01 00:00:00.0000 TDB 
 X = 9.535083805276634E+07 Y =-1.176853253034036E+08 Z =-1.671289955622703E+04
 VX= 2.274231735943972E+01 VY= 1.853599428446526E+01 VZ=-7.203988396895511E-04
 LT= 5.052325502763441E+02 RG= 1.514649081089538E+08 RR=-8.527048163213523E-02
2457997.500000000 = A.D. 2017-Sep-01 00:00:00.0000 TDB 
 X = 1.408572847796049E+08 Y =-5.446858896318154E+07 Z =-1.891517609853297E+04
 VX= 1.040435852571137E+01 VY= 2.761649215859406E+01 VZ=-2.373286665466878E-04
 LT= 5.037547010707671E+02 RG= 1.510218600630605E+08 RR=-2.562653094119959E-01
2458027.500000000 = A.D. 2017-Oct-01 00:00:00.0000 TDB 
 X = 1.487469595490241E+08 Y = 2.109234015660805E+07 Z =-2.135803605121840E+04
 VX=-4.528874261357774E+00 VY= 2.940611192601873E+01 VZ= 6.221600337497080E-05
 LT= 5.011299076235966E+02 RG= 1.502349667837909E+08 RR=-3.555268364095633E-01
2458058.500000000 = A.D. 2017-Nov-01 00:00:00.0000 TDB 
 X = 1.164989664141674E+08 Y = 9.333140387227342E+07 Z =-2.333667626059055E+04
 VX=-1.904356976790168E+01 VY= 2.319443916446202E+01 VZ= 1.867202057024286E-04
 LT= 4.979248427958234E+02 RG= 1.492741125210235E+08 RR=-3.603212170978752E-01
2458088.500000000 = A.D. 2017-Dec-01 00:00:00.0000 TDB 
 X = 5.379627299482698E+07 Y = 1.383650945009537E+08 Z =-2.423391381468624E+04
 VX=-2.824723355188932E+01 VY= 1.069179101403569E+01 VZ= 1.411348704767335E-04
 LT= 4.951931608972682E+02 RG= 1.484551748901815E+08 RR=-2.709586709562986E-01
2458119.500000000 = A.D. 2018-Jan-01 00:00:00.0000 TDB 
 X =-2.594297223157885E+07 Y = 1.456624685950321E+08 Z =-2.365300326656550E+04
 VX=-2.979334640153705E+01 VY=-5.411250320403475E+00 VZ=-1.941059827641478E-04
 LT= 4.935237549240717E+02 RG= 1.479546995700771E+08 RR=-1.033297146219610E-01
2458150.500000000 = A.D. 2018-Feb-01 00:00:00.0000 TDB 
 X =-9.804088424283649E+07 Y = 1.107889506397180E+08 Z =-2.155749268569052E+04
 VX=-2.268578845894536E+01 VY=-1.995590500018979E+01 VZ=-3.863073948462414E-05
 LT= 4.934743101784925E+02 RG= 1.479398764082647E+08 RR= 8.950248829633121E-02
